{
  "type": "FeatureCollection",
  "features": [
    {
      "type": "Feature",
      "properties": {
        "norad_id": 44873,
        "name": "CSG-1",
        "group": "resource",
        "lat": 43.48004812370327,
        "lon": 164.69591086854695,
        "alt_km": 618.1618707771331,
        "timestamp": "2025-12-16T23:36:35.842714+00:00",
        "meta_object_name": "CSG-1",
        "meta_object_id": "2019-092A",
        "meta_epoch": "2025-12-16T10:27:00.089280",
        "meta_mean_motion": 14.82145521,
        "meta_eccentricity": 0.0001487,
        "meta_inclination": 97.8809,
        "meta_ra_of_asc_node": 171.7039,
        "meta_arg_of_pericenter": 86.8831,
        "meta_mean_anomaly": 273.2552,
        "meta_ephemeris_type": 0,
        "meta_classification_type": "U",
        "meta_norad_cat_id": 44873,
        "meta_element_set_no": 999,
        "meta_rev_at_epoch": 32440,
        "meta_bstar": 9.6665e-05,
        "meta_mean_motion_dot": 7.17e-06,
        "meta_mean_motion_ddot": 0,
        "tle_line1": "1 44873U 19092A   25350.43541770  .00000717  00000+0  96665-4 0  9993",
        "tle_line2": "2 44873  97.8809 171.7039 0001487  86.8831 273.2552 14.82145521324403"
      },
      "geometry": {
        "type": "Point",
        "coordinates": [
          164.69591086854695,
          43.48004812370327
        ]
      }
    },
    {
      "type": "Feature",
      "properties": {
        "norad_id": 46277,
        "name": "NEMO-HD",
        "group": "resource",
        "lat": 10.572238365143532,
        "lon": 48.671872745411164,
        "alt_km": 445.6631559973257,
        "timestamp": "2025-12-16T23:36:35.842724+00:00",
        "meta_object_name": "NEMO-HD",
        "meta_object_id": "2020-061F",
        "meta_epoch": "2025-12-16T07:58:24.183840",
        "meta_mean_motion": 15.40404762,
        "meta_eccentricity": 0.00016594,
        "meta_inclination": 97.2215,
        "meta_ra_of_asc_node": 49.3846,
        "meta_arg_of_pericenter": 53.8345,
        "meta_mean_anomaly": 306.3055,
        "meta_ephemeris_type": 0,
        "meta_classification_type": "U",
        "meta_norad_cat_id": 46277,
        "meta_element_set_no": 999,
        "meta_rev_at_epoch": 29379,
        "meta_bstar": 0.00021113936,
        "meta_mean_motion_dot": 8.455e-05,
        "meta_mean_motion_ddot": 0,
        "tle_line1": "1 46277U 20061F   25350.33222435  .00008455  00000+0  21114-3 0  9997",
        "tle_line2": "2 46277  97.2215  49.3846 0001659  53.8345 306.3055 15.40404762293792"
      },
      "geometry": {
        "type": "Point",
        "coordinates": [
          48.671872745411164,
          10.572238365143532
        ]
      }
    },
    {
      "type": "Feature",
      "properties": {
        "norad_id": 46984,
        "name": "SENTINEL-6A",
        "group": "resource",
        "lat": -42.63669158011578,
        "lon": -2.338735167562783,
        "alt_km": 1338.9150757121315,
        "timestamp": "2025-12-16T23:36:35.842734+00:00",
        "meta_object_name": "SENTINEL-6A",
        "meta_object_id": "2020-086A",
        "meta_epoch": "2025-12-16T03:41:09.449376",
        "meta_mean_motion": 12.80930741,
        "meta_eccentricity": 0.00077163,
        "meta_inclination": 66.039,
        "meta_ra_of_asc_node": 155.2173,
        "meta_arg_of_pericenter": 269.2946,
        "meta_mean_anomaly": 90.7185,
        "meta_ephemeris_type": 0,
        "meta_classification_type": "U",
        "meta_norad_cat_id": 46984,
        "meta_element_set_no": 999,
        "meta_rev_at_epoch": 23688,
        "meta_bstar": 9.7652473e-05,
        "meta_mean_motion_dot": -3.9e-07,
        "meta_mean_motion_ddot": 0,
        "tle_line1": "1 46984U 20086A   25350.15358159 -.00000039  00000+0  97652-4 0  9994",
        "tle_line2": "2 46984  66.0390 155.2173 0007716 269.2946  90.7185 12.80930741236882"
      },
      "geometry": {
        "type": "Point",
        "coordinates": [
          -2.338735167562783,
          -42.63669158011578
        ]
      }
    },
    {
      "type": "Feature",
      "properties": {
        "norad_id": 48079,
        "name": "GAOFEN-12 02",
        "group": "resource",
        "lat": -75.72762036190788,
        "lon": 18.461108687090427,
        "alt_km": 636.9829751429443,
        "timestamp": "2025-12-16T23:36:35.842744+00:00",
        "meta_object_name": "GAOFEN-12 02",
        "meta_object_id": "2021-026A",
        "meta_epoch": "2025-12-16T06:07:19.374240",
        "meta_mean_motion": 14.80679301,
        "meta_eccentricity": 0.00035941,
        "meta_inclination": 97.9852,
        "meta_ra_of_asc_node": 344.2445,
        "meta_arg_of_pericenter": 94.0705,
        "meta_mean_anomaly": 266.0918,
        "meta_ephemeris_type": 0,
        "meta_classification_type": "U",
        "meta_norad_cat_id": 48079,
        "meta_element_set_no": 999,
        "meta_rev_at_epoch": 25469,
        "meta_bstar": 6.8721214e-05,
        "meta_mean_motion_dot": 4.75e-06,
        "meta_mean_motion_ddot": 0,
        "tle_line1": "1 48079U 21026A   25350.25508535  .00000475  00000+0  68721-4 0  9990",
        "tle_line2": "2 48079  97.9852 344.2445 0003594  94.0705 266.0918 14.80679301254699"
      },
      "geometry": {
        "type": "Point",
        "coordinates": [
          18.461108687090427,
          -75.72762036190788
        ]
      }
    },
    {
      "type": "Feature",
      "properties": {
        "norad_id": 48268,
        "name": "PLEIADES NEO 3",
        "group": "resource",
        "lat": 3.8405873624978106,
        "lon": 62.8300789795116,
        "alt_km": 626.5732153832532,
        "timestamp": "2025-12-16T23:36:35.842754+00:00",
        "meta_object_name": "PLEIADES NEO 3",
        "meta_object_id": "2021-034A",
        "meta_epoch": "2025-12-16T12:14:49.336800",
        "meta_mean_motion": 14.81671053,
        "meta_eccentricity": 0.000131,
        "meta_inclination": 97.8948,
        "meta_ra_of_asc_node": 62.8972,
        "meta_arg_of_pericenter": 96.3461,
        "meta_mean_anomaly": 263.7901,
        "meta_ephemeris_type": 0,
        "meta_classification_type": "U",
        "meta_norad_cat_id": 48268,
        "meta_element_set_no": 999,
        "meta_rev_at_epoch": 25060,
        "meta_bstar": 0.00011659,
        "meta_mean_motion_dot": 8.66e-06,
        "meta_mean_motion_ddot": 0,
        "tle_line1": "1 48268U 21034A   25350.51029325  .00000866  00000+0  11659-3 0  9994",
        "tle_line2": "2 48268  97.8948  62.8972 0001310  96.3461 263.7901 14.81671053250600"
      },
      "geometry": {
        "type": "Point",
        "coordinates": [
          62.8300789795116,
          3.8405873624978106
        ]
      }
    },
    {
      "type": "Feature",
      "properties": {
        "norad_id": 49070,
        "name": "PLEIADES NEO 4",
        "group": "resource",
        "lat": -4.167111043396296,
        "lon": -117.21963924830163,
        "alt_km": 627.5453213552728,
        "timestamp": "2025-12-16T23:36:35.842765+00:00",
        "meta_object_name": "PLEIADES NEO 4",
        "meta_object_id": "2021-073E",
        "meta_epoch": "2025-12-16T19:32:25.031904",
        "meta_mean_motion": 14.81671846,
        "meta_eccentricity": 0.0001248,
        "meta_inclination": 97.8946,
        "meta_ra_of_asc_node": 63.1925,
        "meta_arg_of_pericenter": 98.3982,
        "meta_mean_anomaly": 261.7372,
        "meta_ephemeris_type": 0,
        "meta_classification_type": "U",
        "meta_norad_cat_id": 49070,
        "meta_element_set_no": 999,
        "meta_rev_at_epoch": 23436,
        "meta_bstar": 1.7376e-05,
        "meta_mean_motion_dot": 8.5e-07,
        "meta_mean_motion_ddot": 0,
        "tle_line1": "1 49070U 21073E   25350.81417861  .00000085  00000+0  17376-4 0  9994",
        "tle_line2": "2 49070  97.8946  63.1925 0001248  98.3982 261.7372 14.81671846234367"
      },
      "geometry": {
        "type": "Point",
        "coordinates": [
          -117.21963924830163,
          -4.167111043396296
        ]
      }
    },
    {
      "type": "Feature",
      "properties": {
        "norad_id": 49260,
        "name": "LANDSAT 9",
        "group": "resource",
        "lat": -6.040309745223812,
        "lon": -121.84207636121076,
        "alt_km": 706.3988211299993,
        "timestamp": "2025-12-16T23:36:35.842775+00:00",
        "meta_object_name": "LANDSAT 9",
        "meta_object_id": "2021-088A",
        "meta_epoch": "2025-12-16T06:16:42.225312",
        "meta_mean_motion": 14.57101655,
        "meta_eccentricity": 0.00011347,
        "meta_inclination": 98.2092,
        "meta_ra_of_asc_node": 58.3216,
        "meta_arg_of_pericenter": 89.6816,
        "meta_mean_anomaly": 270.4513,
        "meta_ephemeris_type": 0,
        "meta_classification_type": "U",
        "meta_norad_cat_id": 49260,
        "meta_element_set_no": 999,
        "meta_rev_at_epoch": 22436,
        "meta_bstar": 0.00010313817,
        "meta_mean_motion_dot": 4.19e-06,
        "meta_mean_motion_ddot": 0,
        "tle_line1": "1 49260U 21088A   25350.26159983  .00000419  00000+0  10314-3 0  9993",
        "tle_line2": "2 49260  98.2092  58.3216 0001134  89.6816 270.4513 14.57101655224369"
      },
      "geometry": {
        "type": "Point",
        "coordinates": [
          -121.84207636121076,
          -6.040309745223812
        ]
      }
    }
  ]
}